#aV2021 12 24  0  0  0.00000000     288 DD+AD WGS84 FIT  NGA
## 2189 432000.00000000   300.00000000 59572 0.0000000000000
+   32     1  2  3  4  5  6  7  8  9 10 11 12 13 14 15 16 17
+         18 19 20 21 22 23 24 25 26 27 28 29 30 31 32  0  0
+          0  0  0  0  0  0  0  0  0  0  0  0  0  0  0  0  0
+          0  0  0  0  0  0  0  0  0  0  0  0  0  0  0  0  0
+          0  0  0  0  0  0  0  0  0  0  0  0  0  0  0  0  0
++         2  2  2  2  2  2  2  2  2  2  2  2  2  2  2  2  2
++         2  2  2  2  2  2  2  2  2  2  2  2  2  2  2  0  0
++         0  0  0  0  0  0  0  0  0  0  0  0  0  0  0  0  0
++         0  0  0  0  0  0  0  0  0  0  0  0  0  0  0  0  0
++         0  0  0  0  0  0  0  0  0  0  0  0  0  0  0  0  0
%c cc cc ccc ccc cccc cccc cccc cccc ccccc ccccc ccccc ccccc
%c cc cc ccc ccc cccc cccc cccc cccc ccccc ccccc ccccc ccccc
%f  0.0000000  0.000000000  0.00000000000  0.000000000000000
%f  0.0000000  0.000000000  0.00000000000  0.000000000000000
%i    0    0    0    0      0      0      0      0         0
%i    0    0    0    0      0      0      0      0         0
/*      NGA, ST. LOUIS,MO.                                  
/*   EPHEMERIS COMPUTED FROM 2 DAYS OF DATA                 
/*   EPOCHA v7 SMOOTHER                                     
/*   G2139 IERS2010 SATIGS SATAPC                           
*  2021 12 24  6 30  0.00000000
P  1  21856.083802  14418.745830  -5715.558820    475.816479                    
V  1  -6857.360038  -1427.295104 -31009.757906     -0.100617                    
P  2  -3601.873354 -16757.471641  20928.839638   -646.640948                    
V  2  23865.340413   7821.983584  10816.561903     -0.011693                    
P  3  12601.402105  17044.461030  15965.559230    -52.138286                    
V  3    336.714577  20460.204829 -21865.168335     -0.131498                    
P  4  15602.519449   6766.718202  20421.141357   -197.904219                    
V  4 -21049.151444  15136.882209  10990.935185      0.014370                    
P  5  -5623.897843 -25723.880765  -2941.857156    -65.466141                    
V  5   2451.207121  -3925.297601  31526.387624     -0.012898                    
P  6  12983.410951  -9504.326989  21213.499750    151.106801                    
V  6  24030.588497  11629.515927  -9466.103234      0.103252                    
P  7  24763.182772   4470.016409  -8862.173409    294.394243                    
V  7   9498.498895   7207.490612  28465.707022      0.042534                    
P  8   5504.053536  14497.377052 -21540.508603    -49.300382                    
V  8 -22269.214860  15881.573491   5330.944652     -0.015005                    
P  9  22191.561599  -4189.487997  13929.787316   -359.789768                    
V  9 -12903.939079  12507.136062  24158.468235      0.008539                    
P 10 -12081.139319  13014.077995 -19522.525420   -276.130383                    
V 10  -3786.691030 -24885.154094 -14436.253958     -0.091592                    
P 11   -878.675652 -16715.157939  20622.553743     10.013401                    
V 11  23604.185580  11378.138502  10210.626574     -0.037878                    
P 12 -10346.215549 -19669.416945  14386.492015   -145.350499                    
V 12   1371.266553 -18681.972988 -23993.224608     -0.056149                    
P 13   3503.313931 -17357.547714 -19901.487913    234.256904                    
V 13  22584.681574 -10687.267108  13553.079351      0.058490                    
P 14  13085.302825 -12460.235707 -19449.331477    -60.104363                    
V 14   2754.599486  24613.366315 -13976.537404     -0.059417                    
P 15  -8111.957445 -14167.675116 -21323.150450    -96.845681                    
V 15  19786.029821 -17349.452418   4406.114358      0.028388                    
P 16    371.280057  26299.991075   -257.743918   -445.145736                    
V 16  -2886.961856     43.652137  32296.611451     -0.058202                    
P 17  22796.428202 -13604.092505   -861.896639    551.800200                    
V 17   -216.731716   2713.383521 -32135.801730      0.052118                    
P 18 -24248.414678  -3814.846256 -10274.520423    274.004547                    
V 18 -10789.157559  -7558.123573  28177.012102     -0.068304                    
P 19  19673.664390 -16289.971493   6680.948200     96.280148                    
V 19   8851.194660  -2336.670281 -30739.035461      0.049912                    
P 20   -400.925006 -25427.793367   8098.740186    517.500182                    
V 20   5417.688386   9202.116689  28859.261811     -0.001851                    
P 21  16911.343764  15774.024540 -12889.774449    154.499178                    
V 21 -16945.382040  -3932.278965 -25109.298290      0.009146                    
P 22  11126.353244  22731.140175   8580.382818   -434.107123                    
V 22   -818.190801  11030.165450 -28521.422700      0.089467                    
P 23 -15127.166723    439.446925 -21847.077836     18.546444                    
V 23  -3337.532405 -27474.054311   1671.738287     -0.040516                    
P 24 -19877.593605 -15100.129667  -9938.946455    275.956510                    
V 24  12369.746780   1488.821446 -27396.271284      0.013078                    
P 25 -15034.874144  -8135.964258  20126.484700    260.414489                    
V 25  -1701.482806 -26061.715337 -11374.383265      0.056825                    
P 26  -6235.481120  22158.245368  12910.290063    167.907402                    
V 26  -5445.916437 -16049.177016  25079.093590      0.035345                    
P 27  -5562.901309  18888.007604 -17822.218881     22.515157                    
V 27 -19107.411810  11752.207743  18988.740231      0.281789                    
P 28   9705.987333 -19906.715062 -14292.409009    436.790577                    
V 28   1983.006169  18957.437073 -23952.590631     -0.078464                    
P 29 -20632.760071   -496.147803  16711.555110   -458.109031                    
V 29  17415.596777 -12210.287262  21031.196194     -0.050366                    
P 30  20240.620023  -4011.036852 -16783.627069   -501.643735                    
V 30  18412.891118  11156.571589  19221.305843     -0.028373                    
P 31 -11380.510713  11151.328244  21194.303185   -156.543382                    
V 31 -24256.785225 -12178.217107  -6116.258770     -0.018345                    
P 32 -20420.596104  16703.859437   2135.368649    -39.663654                    
V 32  -3892.764618   -959.111682 -31650.019818     -0.056186                    
EOF
